{
"type": "FeatureCollection",
"name": "roi_embalse",
"crs": { "type": "name", "properties": { "name": "urn:ogc:def:crs:EPSG::32620" } },
"features": [
{ "type": "Feature", "properties": { }, "geometry": { "type": "Polygon", "coordinates": [ [ [ 353521.181672790204175, -3571832.673096530139446 ], [ 353521.181672790204175, -3557845.2961021726951 ], [ 368484.017087675456423, -3557845.2961021726951 ], [ 368484.017087675456423, -3571832.673096530139446 ], [ 353521.181672790204175, -3571832.673096530139446 ] ] ] } }
]
}
